[{"OBJECT_NAME":"STARLINK-36169","OBJECT_ID":"2025-286E","EPOCH":"2026-03-09T04:30:38.209536","MEAN_MOTION":15.30198841,"ECCENTRICITY":9.387e-5,"INCLINATION":53.1599,"RA_OF_ASC_NODE":0.5231,"ARG_OF_PERICENTER":52.5724,"MEAN_ANOMALY":307.5362,"EPHEMERIS_TYPE":0,"CLASSIFICATION_TYPE":"U","NORAD_CAT_ID":66929,"ELEMENT_SET_NO":999,"REV_AT_EPOCH":1534,"BSTAR":0.0010794097,"MEAN_MOTION_DOT":0.00031745,"MEAN_MOTION_DDOT":0},{"OBJECT_NAME":"SL-3 R\/B","OBJECT_ID":"1981-065B","EPOCH":"2026-03-09T21:58:16.284000","MEAN_MOTION":15.33300883,"ECCENTRICITY":0.00117648,"INCLINATION":97.6337,"RA_OF_ASC_NODE":111.1786,"ARG_OF_PERICENTER":10.529,"MEAN_ANOMALY":349.6196,"EPHEMERIS_TYPE":0,"CLASSIFICATION_TYPE":"U","NORAD_CAT_ID":12586,"ELEMENT_SET_NO":999,"REV_AT_EPOCH":43499,"BSTAR":0.00030084921,"MEAN_MOTION_DOT":9.62e-5,"MEAN_MOTION_DDOT":0}]
